STARLINK-31955          
1 59939U 24106T   26068.09245399 -.00001235  00000+0 -35368-4 0  9992
2 59939  43.0036 335.7110 0001578 261.2872  98.7801 15.27582623100478
HAWK-11A                
1 62382U 24247F   26068.51231358  .00009457  00000+0  34106-3 0  9991
2 62382  44.9941 114.3328 0005466 327.3713  32.6832 15.28849427 67741
